{
  "norad_id": 52635,
  "name": "STARLINK-3978",
  "history": [
    {
      "epoch": "2026-03-28T13:23:43.977696",
      "apogee_km": 540.5893389219727,
      "perigee_km": 538.8598735204178,
      "latitude_deg": 40.84778831648802,
      "longitude_deg": -142.91780256014317,
      "semi_major_axis_km": 6917.861606221195,
      "eccentricity": 0.000125,
      "inclination_deg": 53.2149,
      "raan_deg": 174.4186,
      "arg_perigee_deg": 90.2404,
      "mean_anomaly_deg": 269.8731,
      "mean_motion_rev_day": 15.08846145
    }
  ]
}